[{"OBJECT_NAME":"STARLINK-4399","OBJECT_ID":"2022-099E","EPOCH":"2026-03-09T20:55:05.751840","MEAN_MOTION":15.0564579,"ECCENTRICITY":0.00013048,"INCLINATION":97.6034,"RA_OF_ASC_NODE":191.4197,"ARG_OF_PERICENTER":218.2726,"MEAN_ANOMALY":141.8408,"EPHEMERIS_TYPE":0,"CLASSIFICATION_TYPE":"U","NORAD_CAT_ID":53469,"ELEMENT_SET_NO":999,"REV_AT_EPOCH":19607,"BSTAR":4.6409548e-5,"MEAN_MOTION_DOT":6.09e-6,"MEAN_MOTION_DDOT":0},{"OBJECT_NAME":"CENTAURI-6","OBJECT_ID":"2024-066K","EPOCH":"2026-03-09T07:44:58.674048","MEAN_MOTION":15.04786474,"ECCENTRICITY":0.00025343,"INCLINATION":45.6063,"RA_OF_ASC_NODE":55.7055,"ARG_OF_PERICENTER":285.4438,"MEAN_ANOMALY":74.6166,"EPHEMERIS_TYPE":0,"CLASSIFICATION_TYPE":"U","NORAD_CAT_ID":59451,"ELEMENT_SET_NO":999,"REV_AT_EPOCH":10507,"BSTAR":0.00052686271,"MEAN_MOTION_DOT":7.311e-5,"MEAN_MOTION_DDOT":0}]
